[{"OBJECT_NAME":"STARLINK-1707","OBJECT_ID":"2020-062AL","EPOCH":"2026-03-10T00:00:02.999808","MEAN_MOTION":15.64738018,"ECCENTRICITY":0.00048268,"INCLINATION":53.0247,"RA_OF_ASC_NODE":272.9503,"ARG_OF_PERICENTER":149.3622,"MEAN_ANOMALY":71.1138,"EPHEMERIS_TYPE":0,"CLASSIFICATION_TYPE":"U","NORAD_CAT_ID":46359,"ELEMENT_SET_NO":999,"REV_AT_EPOCH":594,"BSTAR":0.0008682066,"MEAN_MOTION_DOT":0.00086366,"MEAN_MOTION_DDOT":0},{"OBJECT_NAME":"STARLINK-3083","OBJECT_ID":"2021-082AE","EPOCH":"2026-03-09T16:37:39.607392","MEAN_MOTION":15.64475884,"ECCENTRICITY":0.00051971,"INCLINATION":69.9688,"RA_OF_ASC_NODE":173.5767,"ARG_OF_PERICENTER":238.8538,"MEAN_ANOMALY":121.2146,"EPHEMERIS_TYPE":0,"CLASSIFICATION_TYPE":"U","NORAD_CAT_ID":49158,"ELEMENT_SET_NO":999,"REV_AT_EPOCH":25005,"BSTAR":0.00056497056,"MEAN_MOTION_DOT":0.00054695,"MEAN_MOTION_DDOT":0}]
