STARLINK-1707           
1 46359U 20062AL  26069.00003471  .00086366  00000+0  86821-3 0  9991
2 46359  53.0247 272.9503 0004827 149.3622  71.1138 15.64738018  5948
STARLINK-3083           
1 49158U 21082AE  26068.69281953  .00054695  00000+0  56497-3 0  9997
2 49158  69.9688 173.5767 0005197 238.8538 121.2146 15.64475884250051
